{"type": "FeatureCollection", "features": [ {"type": "Feature", "properties": {"norad_id": 66484, "name": "STARLINK-35371", "group": "last-30-days", "lat": 36.61611539286726, "lon": -174.78114064735914, "alt_km": 410.1050707188024, "timestamp": "2025-12-14T22:38:39.515986+00:00", "meta": {"OBJECT_NAME": "STARLINK-35371", "OBJECT_ID": "2025-262AE", "EPOCH": "2025-12-12T16:01:32.219328", "MEAN_MOTION": 15.50574998, "ECCENTRICITY": 0.00014167, "INCLINATION": 43.0018, "RA_OF_ASC_NODE": 71.4158, "ARG_OF_PERICENTER": 278.2184, "MEAN_ANOMALY": 81.8515, "EPHEMERIS_TYPE": 0, "CLASSIFICATION_TYPE": "U", "NORAD_CAT_ID": 66484, "ELEMENT_SET_NO": 999, "REV_AT_EPOCH": 555, "BSTAR": 7.4960958e-05, "MEAN_MOTION_DOT": 4.058e-05, "MEAN_MOTION_DDOT": 0}, "tle": {"line1": "1 66484U 25262AE  25346.66773402  .00004058  00000+0  74961-4 0  9997", "line2": "2 66484  43.0018  71.4158 0001416 278.2184  81.8515 15.50574998  5552"}}, "geometry": {"type": "Point", "coordinates": [-174.78114064735914, 36.61611539286726]}}, {"type": "Feature", "properties": {"norad_id": 66485, "name": "STARLINK-34774", "group": "last-30-days", "lat": -1.1517013438192458, "lon": -66.04985903682102, "alt_km": 444.1901221530643, "timestamp": "2025-12-14T22:38:39.515996+00:00", "meta": {"OBJECT_NAME": "STARLINK-34774", "OBJECT_ID": "2025-263A", "EPOCH": "2025-12-14T01:38:02.194080", "MEAN_MOTION": 15.40689642, "ECCENTRICITY": 0.00014296, "INCLINATION": 43.0009, "RA_OF_ASC_NODE": 117.7603, "ARG_OF_PERICENTER": 303.4001, "MEAN_ANOMALY": 56.6718, "EPHEMERIS_TYPE": 0, "CLASSIFICATION_TYPE": "U", "NORAD_CAT_ID": 66485, "ELEMENT_SET_NO": 999, "REV_AT_EPOCH": 576, "BSTAR": 0.0017871736, "MEAN_MOTION_DOT": 0.00075063, "MEAN_MOTION_DDOT": 0}, "tle": {"line1": "1 66485U 25263A   25348.06808095  .00075063  00000+0  17872-2 0  9992", "line2": "2 66485  43.0009 117.7603 0001429 303.4001  56.6718 15.40689642  5765"}}, "geometry": {"type": "Point", "coordinates": [-66.04985903682102, -1.1517013438192458]}}, {"type": "Feature", "properties": {"norad_id": 66486, "name": "STARLINK-34844", "group": "last-30-days", "lat": 0.12618765694479966, "lon": 112.41475706391518, "alt_km": 413.4616131740722, "timestamp": "2025-12-14T22:38:39.516006+00:00", "meta": {"OBJECT_NAME": "STARLINK-34844", "OBJECT_ID": "2025-263B", "EPOCH": "2025-12-13T18:48:59.664960", "MEAN_MOTION": 15.50521682, "ECCENTRICITY": 0.00040201, "INCLINATION": 43.0013, "RA_OF_ASC_NODE": 119.0631, "ARG_OF_PERICENTER": 285.7981, "MEAN_ANOMALY": 74.2436, "EPHEMERIS_TYPE": 0, "CLASSIFICATION_TYPE": "U", "NORAD_CAT_ID": 66486, "ELEMENT_SET_NO": 999, "REV_AT_EPOCH": 567, "BSTAR": 0.0010716993, "MEAN_MOTION_DOT": 0.00062922, "MEAN_MOTION_DDOT": 0}, "tle": {"line1": "1 66486U 25263B   25347.78402390  .00062922  00000+0  10717-2 0  9990", "line2": "2 66486  43.0013 119.0631 0004020 285.7981  74.2436 15.50521682  5679"}}, "geometry": {"type": "Point", "coordinates": [112.41475706391518, 0.12618765694479966]}}, {"type": "Feature", "properties": {"norad_id": 66487, "name": "STARLINK-34733", "group": "last-30-days", "lat": -42.962885180984514, "lon": 20.56411601537683, "alt_km": 446.1670071383287, "timestamp": "2025-12-14T22:38:39.516016+00:00", "meta": {"OBJECT_NAME": "STARLINK-34733", "OBJECT_ID": "2025-263C", "EPOCH": "2025-12-14T06:00:02.999808", "MEAN_MOTION": 15.40641824, "ECCENTRICITY": 0.00014774, "INCLINATION": 42.9995, "RA_OF_ASC_NODE": 116.499, "ARG_OF_PERICENTER": 259.9774, "MEAN_ANOMALY": 117.6057, "EPHEMERIS_TYPE": 0, "CLASSIFICATION_TYPE": "U", "NORAD_CAT_ID": 66487, "ELEMENT_SET_NO": 999, "REV_AT_EPOCH": 587, "BSTAR": 0.0024810724, "MEAN_MOTION_DOT": 0.00104566, "MEAN_MOTION_DDOT": 0}, "tle": {"line1": "1 66487U 25263C   25348.25003472  .00104566  00000+0  24811-2 0  9993", "line2": "2 66487  42.9995 116.4990 0001477 259.9774 117.6057 15.40641824  5875"}}, "geometry": {"type": "Point", "coordinates": [20.56411601537683, -42.962885180984514]}}, {"type": "Feature", "properties": {"norad_id": 66488, "name": "STARLINK-35515", "group": "last-30-days", "lat": 2.891141290288403, "lon": 115.37582105265977, "alt_km": 412.8734304276986, "timestamp": "2025-12-14T22:38:39.516026+00:00", "meta": {"OBJECT_NAME": "STARLINK-35515", "OBJECT_ID": "2025-263D", "EPOCH": "2025-12-14T08:42:49.337856", "MEAN_MOTION": 15.5064861, "ECCENTRICITY": 0.00056329, "INCLINATION": 42.9997, "RA_OF_ASC_NODE": 115.6657, "ARG_OF_PERICENTER": 285.0725, "MEAN_ANOMALY": 74.9512, "EPHEMERIS_TYPE": 0, "CLASSIFICATION_TYPE": "U", "NORAD_CAT_ID": 66488, "ELEMENT_SET_NO": 999, "REV_AT_EPOCH": 581, "BSTAR": 0.0019213759, "MEAN_MOTION_DOT": 0.00114374, "MEAN_MOTION_DDOT": 0}, "tle": {"line1": "1 66488U 25263D   25348.36307104  .00114374  00000+0  19214-2 0  9994", "line2": "2 66488  42.9997 115.6657 0005632 285.0725  74.9512 15.50648610  5818"}}, "geometry": {"type": "Point", "coordinates": [115.37582105265977, 2.891141290288403]}}, {"type": "Feature", "properties": {"norad_id": 66489, "name": "STARLINK-35696", "group": "last-30-days", "lat": 4.153933854327463, "lon": 116.73298958434734, "alt_km": 413.9013671032608, "timestamp": "2025-12-14T22:38:39.516036+00:00", "meta": {"OBJECT_NAME": "STARLINK-35696", "OBJECT_ID": "2025-263E", "EPOCH": "2025-12-13T17:14:44.822976", "MEAN_MOTION": 15.50559285, "ECCENTRICITY": 0.00017453, "INCLINATION": 42.9995, "RA_OF_ASC_NODE": 119.43, "ARG_OF_PERICENTER": 269.6287, "MEAN_ANOMALY": 90.4373, "EPHEMERIS_TYPE": 0, "CLASSIFICATION_TYPE": "U", "NORAD_CAT_ID": 66489, "ELEMENT_SET_NO": 999, "REV_AT_EPOCH": 571, "BSTAR": 0.00088015794, "MEAN_MOTION_DOT": 0.00051598, "MEAN_MOTION_DDOT": 0}, "tle": {"line1": "1 66489U 25263E   25347.71857434  .00051598  00000+0  88016-3 0  9994", "line2": "2 66489  42.9995 119.4300 0001745 269.6287  90.4373 15.50559285  5712"}}, "geometry": {"type": "Point", "coordinates": [116.73298958434734, 4.153933854327463]}}, {"type": "Feature", "properties": {"norad_id": 66490, "name": "STARLINK-35693", "group": "last-30-days", "lat": -32.1144314037954, "lon": -25.067501203797587, "alt_km": 445.88430420624627, "timestamp": "2025-12-14T22:38:39.516047+00:00", "meta": {"OBJECT_NAME": "STARLINK-35693", "OBJECT_ID": "2025-263F", "EPOCH": "2025-12-14T06:00:02.999808", "MEAN_MOTION": 15.40635379, "ECCENTRICITY": 0.00018091, "INCLINATION": 42.9996, "RA_OF_ASC_NODE": 116.5873, "ARG_OF_PERICENTER": 272.4001, "MEAN_ANOMALY": 67.86, "EPHEMERIS_TYPE": 0, "CLASSIFICATION_TYPE": "U", "NORAD_CAT_ID": 66490, "ELEMENT_SET_NO": 999, "REV_AT_EPOCH": 587, "BSTAR": 0.0019296951, "MEAN_MOTION_DOT": 0.00080991, "MEAN_MOTION_DDOT": 0}, "tle": {"line1": "1 66490U 25263F   25348.25003472  .00080991  00000+0  19297-2 0  9994", "line2": "2 66490  42.9996 116.5873 0001809 272.4001  67.8600 15.40635379  5871"}}, "geometry": {"type": "Point", "coordinates": [-25.067501203797587, -32.1144314037954]}}, {"type": "Feature", "properties": {"norad_id": 66491, "name": "STARLINK-35663", "group": "last-30-days", "lat": 7.875103290361453, "lon": 120.78694282361501, "alt_km": 413.30550447383575, "timestamp": "2025-12-14T22:38:39.516057+00:00", "meta": {"OBJECT_NAME": "STARLINK-35663", "OBJECT_ID": "2025-263G", "EPOCH": "2025-12-14T08:40:52.169952", "MEAN_MOTION": 15.50552031, "ECCENTRICITY": 0.00013717, "INCLINATION": 43.0003, "RA_OF_ASC_NODE": 115.6548, "ARG_OF_PERICENTER": 289.8935, "MEAN_ANOMALY": 70.1777, "EPHEMERIS_TYPE": 0, "CLASSIFICATION_TYPE": "U", "NORAD_CAT_ID": 66491, "ELEMENT_SET_NO": 999, "REV_AT_EPOCH": 581, "BSTAR": 0.001528704, "MEAN_MOTION_DOT": 0.00090294, "MEAN_MOTION_DDOT": 0}, "tle": {"line1": "1 66491U 25263G   25348.36171493  .00090294  00000+0  15287-2 0  9998", "line2": "2 66491  43.0003 115.6548 0001371 289.8935  70.1777 15.50552031  5814"}}, "geometry": {"type": "Point", "coordinates": [120.78694282361501, 7.875103290361453]}}, {"type": "Feature", "properties": {"norad_id": 66492, "name": "STARLINK-35673", "group": "last-30-days", "lat": -17.64685084763708, "lon": -47.38813721946307, "alt_km": 445.26402605954354, "timestamp": "2025-12-14T22:38:39.516067+00:00", "meta": {"OBJECT_NAME": "STARLINK-35673", "OBJECT_ID": "2025-263H", "EPOCH": "2025-12-14T06:00:02.999808", "MEAN_MOTION": 15.40651953, "ECCENTRICITY": 0.00015023, "INCLINATION": 42.9998, "RA_OF_ASC_NODE": 116.6478, "ARG_OF_PERICENTER": 272.0484, "MEAN_ANOMALY": 43.3149, "EPHEMERIS_TYPE": 0, "CLASSIFICATION_TYPE": "U", "NORAD_CAT_ID": 66492, "ELEMENT_SET_NO": 999, "REV_AT_EPOCH": 587, "BSTAR": 0.001857567, "MEAN_MOTION_DOT": 0.00077964, "MEAN_MOTION_DDOT": 0}, "tle": {"line1": "1 66492U 25263H   25348.25003472  .00077964  00000+0  18576-2 0  9991", "line2": "2 66492  42.9998 116.6478 0001502 272.0484  43.3149 15.40651953  5871"}}, "geometry": {"type": "Point", "coordinates": [-47.38813721946307, -17.64685084763708]}}, {"type": "Feature", "properties": {"norad_id": 66493, "name": "STARLINK-35597", "group": "last-30-days", "lat": 7.983184272931721, "lon": 120.90380487740465, "alt_km": 416.2941442902902, "timestamp": "2025-12-14T22:38:39.516078+00:00", "meta": {"OBJECT_NAME": "STARLINK-35597", "OBJECT_ID": "2025-263J", "EPOCH": "2025-12-14T07:07:17.243040", "MEAN_MOTION": 15.49303717, "ECCENTRICITY": 0.00028192, "INCLINATION": 42.9983, "RA_OF_ASC_NODE": 116.0244, "ARG_OF_PERICENTER": 315.1348, "MEAN_ANOMALY": 44.9283, "EPHEMERIS_TYPE": 0, "CLASSIFICATION_TYPE": "U", "NORAD_CAT_ID": 66493, "ELEMENT_SET_NO": 999, "REV_AT_EPOCH": 580, "BSTAR": -0.00014660615, "MEAN_MOTION_DOT": -8.55e-05, "MEAN_MOTION_DDOT": 0}, "tle": {"line1": "1 66493U 25263J   25348.29672735 -.00008550  00000+0 -14661-3 0  9999", "line2": "2 66493  42.9983 116.0244 0002819 315.1348  44.9283 15.49303717  5801"}}, "geometry": {"type": "Point", "coordinates": [120.90380487740465, 7.983184272931721]}}]}